{"updated_at":"2026-06-14T00:15:38.702233Z","count":200,"data":[{"NORAD_CAT_ID":"69296","OBJECT_NAME":"STARLINK-37501","OBJECT_ID":"2026-119A","EPOCH":"2026-06-13T20:32:53.922624","TLE_LINE1":"1 69296U 26119A   26164.85617966  .00193010  00000-0  10228-2 0  9997","TLE_LINE2":"2 69296  97.2826 190.4994 0001303  81.3676 278.7739 15.80014108  3512"},{"NORAD_CAT_ID":"69297","OBJECT_NAME":"STARLINK-37496","OBJECT_ID":"2026-119B","EPOCH":"2026-06-13T20:33:35.209728","TLE_LINE1":"1 69297U 26119B   26164.85665752  .00124700  00000-0  66722-3 0  9995","TLE_LINE2":"2 69297  97.2828 190.4990 0001178  86.5852 273.5551 15.79984824  3518"},{"NORAD_CAT_ID":"69298","OBJECT_NAME":"STARLINK-37519","OBJECT_ID":"2026-119C","EPOCH":"2026-06-13T20:25:29.050752","TLE_LINE1":"1 69298U 26119C   26164.85103068 -.00688859  00000-0 -41045-2 0  9995","TLE_LINE2":"2 69298  97.2828 190.5067 0001269 224.7510 135.3655 15.79630082  3517"},{"NORAD_CAT_ID":"69299","OBJECT_NAME":"STARLINK-37455","OBJECT_ID":"2026-119D","EPOCH":"2026-06-12T14:07:06.079584","TLE_LINE1":"1 69299U 26119D   26163.58826481 -.00255334  00000-0 -14432-2 0  9994","TLE_LINE2":"2 69299  97.2829 189.1634 0004055  36.6104 323.5440 15.79682093  3318"},{"NORAD_CAT_ID":"69300","OBJECT_NAME":"STARLINK-37456","OBJECT_ID":"2026-119E","EPOCH":"2026-06-13T20:00:01.999008","TLE_LINE1":"1 69300U 26119E   26164.83335647 -.02494578  00000-0 -16603-1 0  9993","TLE_LINE2":"2 69300  97.2831 190.4911 0002488 105.9347 158.0552 15.78827659  3351"},{"NORAD_CAT_ID":"69301","OBJECT_NAME":"STARLINK-37630","OBJECT_ID":"2026-119F","EPOCH":"2026-06-13T20:00:01.999008","TLE_LINE1":"1 69301U 26119F   26164.83335647 -.02535464  00000-0 -33022-1 0  9998","TLE_LINE2":"2 69301  97.2842 190.4378 0001954  86.3460  57.5540 15.62342922  3501"},{"NORAD_CAT_ID":"69302","OBJECT_NAME":"STARLINK-37804","OBJECT_ID":"2026-119G","EPOCH":"2026-06-13T20:00:01.999008","TLE_LINE1":"1 69302U 26119G   26164.83335647 -.02590372  00000-0 -33472-1 0  9997","TLE_LINE2":"2 69302  97.2845 190.4409 0001942  76.7294  72.7911 15.62629586  3500"},{"NORAD_CAT_ID":"69303","OBJECT_NAME":"STARLINK-37730","OBJECT_ID":"2026-119H","EPOCH":"2026-06-13T20:20:50.074656","TLE_LINE1":"1 69303U 26119H   26164.84780179  .00102142  00000-0  52675-3 0  9991","TLE_LINE2":"2 69303  97.2822 190.5110 0001500  90.6269 269.5171 15.80858447  3518"},{"NORAD_CAT_ID":"69304","OBJECT_NAME":"STARLINK-37731","OBJECT_ID":"2026-119J","EPOCH":"2026-06-13T20:00:01.999008","TLE_LINE1":"1 69304U 26119J   26164.83335647 -.02555831  00000-0 -34460-1 0  9998","TLE_LINE2":"2 69304  97.2842 190.4412 0001979  81.0904  71.5691 15.61486998  3509"},{"NORAD_CAT_ID":"69305","OBJECT_NAME":"STARLINK-37734","OBJECT_ID":"2026-119K","EPOCH":"2026-06-13T20:00:01.999008","TLE_LINE1":"1 69305U 26119K   26164.83335647 -.02170312  00000-0 -14970-1 0  9990","TLE_LINE2":"2 69305  97.2827 190.4978 0003277 110.6945 170.2278 15.77536108  3501"},{"NORAD_CAT_ID":"69306","OBJECT_NAME":"STARLINK-37701","OBJECT_ID":"2026-119L","EPOCH":"2026-06-13T18:47:46.735584","TLE_LINE1":"1 69306U 26119L   26164.78317981  .00180530  00000-0  92031-3 0  9991","TLE_LINE2":"2 69306  97.2819 190.4450 0001498  94.9155 265.2284 15.80900205  3507"},{"NORAD_CAT_ID":"69307","OBJECT_NAME":"STARLINK-37732","OBJECT_ID":"2026-119M","EPOCH":"2026-06-13T20:18:19.977984","TLE_LINE1":"1 69307U 26119M   26164.84606456  .00088538  00000-0  45744-3 0  9991","TLE_LINE2":"2 69307  97.2821 190.5137 0001356  78.3870 281.7551 15.80856906  3516"},{"NORAD_CAT_ID":"69308","OBJECT_NAME":"STARLINK-37689","OBJECT_ID":"2026-119N","EPOCH":"2026-06-13T20:00:01.999008","TLE_LINE1":"1 69308U 26119N   26164.83335647 -.02512441  00000-0 -33387-1 0  9999","TLE_LINE2":"2 69308  97.2843 190.4473 0002099  81.6361  86.4791 15.61790697  3508"},{"NORAD_CAT_ID":"69309","OBJECT_NAME":"STARLINK-37619","OBJECT_ID":"2026-119P","EPOCH":"2026-06-13T18:44:42.929088","TLE_LINE1":"1 69309U 26119P   26164.78105242  .00162494  00000-0  83073-3 0  9994","TLE_LINE2":"2 69309  97.2823 190.4484 0001060  98.1827 261.9561 15.80885526  3508"},{"NORAD_CAT_ID":"69280","OBJECT_NAME":"KUIPER-00595","OBJECT_ID":"2026-118P","EPOCH":"2026-06-13T19:18:36.181152","TLE_LINE1":"1 69280U 26118P   26164.80458543  .00023987  00000-0  63020-3 0  9992","TLE_LINE2":"2 69280  51.8722  69.5135 0001671 121.0408 239.0744 15.38478775  3492"},{"NORAD_CAT_ID":"69281","OBJECT_NAME":"KUIPER-00596","OBJECT_ID":"2026-118Q","EPOCH":"2026-06-13T19:57:16.073856","TLE_LINE1":"1 69281U 26118Q   26164.83143604 -.00022029  00000-0 -62508-3 0  9993","TLE_LINE2":"2 69281  51.8554  69.6786 0012814 172.2970 187.8214 15.35138298  3461"},{"NORAD_CAT_ID":"69282","OBJECT_NAME":"KUIPER-00597","OBJECT_ID":"2026-118R","EPOCH":"2026-06-13T19:37:38.008992","TLE_LINE1":"1 69282U 26118R   26164.81780103  .00025067  00000-0  69077-3 0  9994","TLE_LINE2":"2 69282  51.8652  69.6003 0007201 159.1254 201.0028 15.36954723  3468"},{"NORAD_CAT_ID":"69283","OBJECT_NAME":"KUIPER-00599","OBJECT_ID":"2026-118S","EPOCH":"2026-06-13T19:34:34.703616","TLE_LINE1":"1 69283U 26118S   26164.81567944  .00023610  00000-0  64402-3 0  9990","TLE_LINE2":"2 69283  51.8692  69.5860 0006156 151.3853 208.7472 15.37313502  3462"},{"NORAD_CAT_ID":"69284","OBJECT_NAME":"KUIPER-00600","OBJECT_ID":"2026-118T","EPOCH":"2026-06-13T19:42:46.827648","TLE_LINE1":"1 69284U 26118T   26164.82137532  .00026841  00000-0  74556-3 0  9998","TLE_LINE2":"2 69284  51.8640  69.6227 0008917 160.6937 199.4389 15.36656502  3469"},{"NORAD_CAT_ID":"69285","OBJECT_NAME":"KUIPER-00601","OBJECT_ID":"2026-118U","EPOCH":"2026-06-13T19:30:27.927936","TLE_LINE1":"1 69285U 26118U   26164.81282324  .00028111  00000-0  75796-3 0  9997","TLE_LINE2":"2 69285  51.8710  69.5675 0004657 142.1854 217.9461 15.37580545  3465"},{"NORAD_CAT_ID":"69286","OBJECT_NAME":"KUIPER-00602","OBJECT_ID":"2026-118V","EPOCH":"2026-06-13T19:23:39.048576","TLE_LINE1":"1 69286U 26118V   26164.80809084  .00026247  00000-0  69675-3 0  9992","TLE_LINE2":"2 69286  51.8710  69.5373 0002780 132.1403 227.9820 15.38105421  3462"},{"NORAD_CAT_ID":"69287","OBJECT_NAME":"KUIPER-00603","OBJECT_ID":"2026-118W","EPOCH":"2026-06-13T19:32:03.744672","TLE_LINE1":"1 69287U 26118W   26164.81393223  .00023813  00000-0  64569-3 0  9990","TLE_LINE2":"2 69287  51.8675  69.5755 0005374 147.4734 212.6585 15.37497026  3468"},{"NORAD_CAT_ID":"69288","OBJECT_NAME":"KUIPER-00605","OBJECT_ID":"2026-118X","EPOCH":"2026-06-13T19:38:38.114880","TLE_LINE1":"1 69288U 26118X   26164.81849670  .00014408  00000-0  40132-3 0  9993","TLE_LINE2":"2 69288  51.8665  69.6048 0007948 152.7890 207.3515 15.37013991  3464"},{"NORAD_CAT_ID":"69289","OBJECT_NAME":"KUIPER-00606","OBJECT_ID":"2026-118Y","EPOCH":"2026-06-13T19:28:51.115008","TLE_LINE1":"1 69289U 26118Y   26164.81170272  .00026976  00000-0  72542-3 0  9992","TLE_LINE2":"2 69289  51.8697  69.5604 0004718 138.5678 221.5667 15.37685343  3467"},{"NORAD_CAT_ID":"69290","OBJECT_NAME":"KUIPER-00607","OBJECT_ID":"2026-118Z","EPOCH":"2026-06-13T19:33:20.231136","TLE_LINE1":"1 69290U 26118Z   26164.81481749  .00023414  00000-0  63775-3 0  9990","TLE_LINE2":"2 69290  51.8678  69.5803 0006160 148.6049 211.5306 15.37363327  3460"},{"NORAD_CAT_ID":"69291","OBJECT_NAME":"KUIPER-00608","OBJECT_ID":"2026-118AA","EPOCH":"2026-06-13T19:50:13.372224","TLE_LINE1":"1 69291U 26118AA  26164.82654366 -.00045349  00000-0 -12935-2 0  9993","TLE_LINE2":"2 69291  51.8602  69.6529 0008972 163.8793 196.2480 15.35404967  3468"},{"NORAD_CAT_ID":"69292","OBJECT_NAME":"KUIPER-00610","OBJECT_ID":"2026-118AB","EPOCH":"2026-06-13T19:21:13.891392","TLE_LINE1":"1 69292U 26118AB  26164.80641078  .00025678  00000-0  67738-3 0  9991","TLE_LINE2":"2 69292  51.8730  69.5224 0002593 122.9555 237.1682 15.38312417  3467"},{"NORAD_CAT_ID":"69293","OBJECT_NAME":"KUIPER-00613","OBJECT_ID":"2026-118AC","EPOCH":"2026-06-13T19:56:14.595072","TLE_LINE1":"1 69293U 26118AC  26164.83072448  .00010189  00000-0  30460-3 0  9997","TLE_LINE2":"2 69293  51.8628  69.6831 0009911 172.0220 188.0925 15.35133525  3467"},{"NORAD_CAT_ID":"69294","OBJECT_NAME":"KUIPER-00618","OBJECT_ID":"2026-118AD","EPOCH":"2026-06-13T19:16:26.020416","TLE_LINE1":"1 69294U 26118AD  26164.80307894  .00032133  00000-0  83722-3 0  9993","TLE_LINE2":"2 69294  51.8732  69.5003 0001719  77.3954 282.7225 15.38575209  3460"},{"NORAD_CAT_ID":"69295","OBJECT_NAME":"KUIPER-00620","OBJECT_ID":"2026-118AE","EPOCH":"2026-06-13T19:20:13.327584","TLE_LINE1":"1 69295U 26118AE  26164.80570981  .00029462  00000-0  77605-3 0  9997","TLE_LINE2":"2 69295  51.8729  69.5197 0002447  82.4452 277.6813 15.38282587  3460"}]}