OBJECT_NAME,OBJECT_ID,EPOCH,MEAN_MOTION,ECCENTRICITY,INCLINATION,RA_OF_ASC_NODE,ARG_OF_PERICENTER,MEAN_ANOMALY,EPHEMERIS_TYPE,CLASSIFICATION_TYPE,NORAD_CAT_ID,ELEMENT_SET_NO,REV_AT_EPOCH,BSTAR,MEAN_MOTION_DOT,MEAN_MOTION_DDOT
KUIPER-00595,2026-118P,2026-06-13T19:18:36.181152,15.38478775,.0001671,51.8722,69.5135,121.0408,239.0744,0,U,69280,999,349,.6302E-3,.23987E-3,0
KUIPER-00596,2026-118Q,2026-06-13T19:57:16.073856,15.35138298,.0012814,51.8554,69.6786,172.2970,187.8214,0,U,69281,999,346,-.62508E-3,-.22029E-3,0
KUIPER-00597,2026-118R,2026-06-13T19:37:38.008992,15.36954723,.0007201,51.8652,69.6003,159.1254,201.0028,0,U,69282,999,346,.69077E-3,.25067E-3,0
KUIPER-00599,2026-118S,2026-06-13T19:34:34.703616,15.37313502,.0006156,51.8692,69.5860,151.3853,208.7472,0,U,69283,999,346,.64402E-3,.2361E-3,0
KUIPER-00600,2026-118T,2026-06-13T19:42:46.827648,15.36656502,.0008917,51.8640,69.6227,160.6937,199.4389,0,U,69284,999,346,.74556E-3,.26841E-3,0
KUIPER-00601,2026-118U,2026-06-13T19:30:27.927936,15.37580545,.0004657,51.8710,69.5675,142.1854,217.9461,0,U,69285,999,346,.75796E-3,.28111E-3,0
KUIPER-00602,2026-118V,2026-06-13T19:23:39.048576,15.38105421,.000278,51.8710,69.5373,132.1403,227.9820,0,U,69286,999,346,.69675E-3,.26247E-3,0
KUIPER-00603,2026-118W,2026-06-13T19:32:03.744672,15.37497026,.0005374,51.8675,69.5755,147.4734,212.6585,0,U,69287,999,346,.64569E-3,.23813E-3,0
KUIPER-00605,2026-118X,2026-06-13T19:38:38.114880,15.37013991,.0007948,51.8665,69.6048,152.7890,207.3515,0,U,69288,999,346,.40132E-3,.14408E-3,0
KUIPER-00606,2026-118Y,2026-06-13T19:28:51.115008,15.37685343,.0004718,51.8697,69.5604,138.5678,221.5667,0,U,69289,999,346,.72542E-3,.26976E-3,0
KUIPER-00607,2026-118Z,2026-06-13T19:33:20.231136,15.37363327,.000616,51.8678,69.5803,148.6049,211.5306,0,U,69290,999,346,.63775E-3,.23414E-3,0
KUIPER-00608,2026-118AA,2026-06-13T19:50:13.372224,15.35404967,.0008972,51.8602,69.6529,163.8793,196.2480,0,U,69291,999,346,-.12935E-2,-.45349E-3,0
KUIPER-00610,2026-118AB,2026-06-13T19:21:13.891392,15.38312417,.0002593,51.8730,69.5224,122.9555,237.1682,0,U,69292,999,346,.67738E-3,.25678E-3,0
KUIPER-00613,2026-118AC,2026-06-13T19:56:14.595072,15.35133525,.0009911,51.8628,69.6831,172.0220,188.0925,0,U,69293,999,346,.3046E-3,.10189E-3,0
KUIPER-00618,2026-118AD,2026-06-13T19:16:26.020416,15.38575209,.0001719,51.8732,69.5003,77.3954,282.7225,0,U,69294,999,346,.83722E-3,.32133E-3,0
KUIPER-00620,2026-118AE,2026-06-13T19:20:13.327584,15.38282587,.0002447,51.8729,69.5197,82.4452,277.6813,0,U,69295,999,346,.77605E-3,.29462E-3,0
STARLINK-37501,2026-119A,2026-06-13T20:32:53.922624,15.80014108,.0001303,97.2826,190.4994,81.3676,278.7739,0,U,69296,999,351,.10228E-2,.19301E-2,0
STARLINK-37496,2026-119B,2026-06-13T20:33:35.209728,15.79984824,.0001178,97.2828,190.4990,86.5852,273.5551,0,U,69297,999,351,.66722E-3,.1247E-2,0
STARLINK-37519,2026-119C,2026-06-13T20:25:29.050752,15.79630082,.0001269,97.2828,190.5067,224.7510,135.3655,0,U,69298,999,351,-.41045E-2,-.688859E-2,0
STARLINK-37455,2026-119D,2026-06-12T14:07:06.079584,15.79682093,.00040545,97.2829,189.1634,36.6104,323.5440,0,U,69299,999,331,-.14431533E-2,-.255334E-2,0
STARLINK-37456,2026-119E,2026-06-13T20:00:01.999008,15.78827659,.0002488,97.2831,190.4911,105.9347,158.0552,0,U,69300,999,335,-.16603E-1,-.2494578E-1,0
STARLINK-37630,2026-119F,2026-06-13T20:00:01.999008,15.62342922,.0001954,97.2842,190.4378,86.3460,57.5540,0,U,69301,999,350,-.33022E-1,-.2535464E-1,0
STARLINK-37804,2026-119G,2026-06-13T20:00:01.999008,15.62629586,.0001942,97.2845,190.4409,76.7294,72.7911,0,U,69302,999,350,-.33472E-1,-.2590372E-1,0
STARLINK-37730,2026-119H,2026-06-13T20:20:50.074656,15.80858447,.00015,97.2822,190.5110,90.6269,269.5171,0,U,69303,999,351,.52675E-3,.102142E-2,0
STARLINK-37731,2026-119J,2026-06-13T20:00:01.999008,15.61486998,.0001979,97.2842,190.4412,81.0904,71.5691,0,U,69304,999,350,-.3446E-1,-.2555831E-1,0
STARLINK-37734,2026-119K,2026-06-13T20:00:01.999008,15.77536108,.0003277,97.2827,190.4978,110.6945,170.2278,0,U,69305,999,350,-.1497E-1,-.2170312E-1,0
STARLINK-37701,2026-119L,2026-06-13T18:47:46.735584,15.80900205,.0001498,97.2819,190.4450,94.9155,265.2284,0,U,69306,999,350,.92031E-3,.18053E-2,0
STARLINK-37732,2026-119M,2026-06-13T20:18:19.977984,15.80856906,.0001356,97.2821,190.5137,78.3870,281.7551,0,U,69307,999,351,.45744E-3,.88538E-3,0
STARLINK-37689,2026-119N,2026-06-13T20:00:01.999008,15.61790697,.0002099,97.2843,190.4473,81.6361,86.4791,0,U,69308,999,350,-.33387E-1,-.2512441E-1,0
STARLINK-37619,2026-119P,2026-06-13T18:44:42.929088,15.80885526,.000106,97.2823,190.4484,98.1827,261.9561,0,U,69309,999,350,.83073E-3,.162494E-2,0
